{"type": "FeatureCollection", "features": [ {"type": "Feature", "properties": {"norad_id": 41556, "name": "ZIYUAN 3-02 (ZY 3-02)", "group": "resource", "lat": -66.2421877371186, "lon": -130.49441069224082, "alt_km": 502.7640054513022, "timestamp": "2025-12-18T14:52:07.687779+00:00", "meta": {"OBJECT_NAME": "ZIYUAN 3-02 (ZY 3-02)", "OBJECT_ID": "2016-033A", "EPOCH": "2025-12-18T07:28:10.123392", "MEAN_MOTION": 15.21134624, "ECCENTRICITY": 0.00109008, "INCLINATION": 97.4044, "RA_OF_ASC_NODE": 66.3866, "ARG_OF_PERICENTER": 225.3972, "MEAN_ANOMALY": 134.6376, "EPHEMERIS_TYPE": 0, "CLASSIFICATION_TYPE": "U", "NORAD_CAT_ID": 41556, "ELEMENT_SET_NO": 999, "REV_AT_EPOCH": 53048, "BSTAR": 0.00028001161, "MEAN_MOTION_DOT": 6.174e-05, "MEAN_MOTION_DDOT": 0}, "tle": {"line1": "1 41556U 16033A   25352.31122828  .00006174  00000+0  28001-3 0  9999", "line2": "2 41556  97.4044  66.3866 0010900 225.3972 134.6376 15.21134624530485"}}, "geometry": {"type": "Point", "coordinates": [-130.49441069224082, -66.2421877371186]}}, {"type": "Feature", "properties": {"norad_id": 41599, "name": "CARTOSAT-2C", "group": "resource", "lat": 33.33148899848963, "lon": -125.23540815254651, "alt_km": 507.9251884209334, "timestamp": "2025-12-18T14:52:07.687790+00:00", "meta": {"OBJECT_NAME": "CARTOSAT-2C", "OBJECT_ID": "2016-040A", "EPOCH": "2025-12-18T07:54:17.300160", "MEAN_MOTION": 15.19162963, "ECCENTRICITY": 0.0011237, "INCLINATION": 97.4762, "RA_OF_ASC_NODE": 49.5229, "ARG_OF_PERICENTER": 45.6567, "MEAN_ANOMALY": 314.5586, "EPHEMERIS_TYPE": 0, "CLASSIFICATION_TYPE": "U", "NORAD_CAT_ID": 41599, "ELEMENT_SET_NO": 999, "REV_AT_EPOCH": 52625, "BSTAR": 0.00013217346, "MEAN_MOTION_DOT": 2.714e-05, "MEAN_MOTION_DDOT": 0}, "tle": {"line1": "1 41599U 16040A   25352.32936690  .00002714  00000+0  13217-3 0  9994", "line2": "2 41599  97.4762  49.5229 0011237  45.6567 314.5586 15.19162963526258"}}, "geometry": {"type": "Point", "coordinates": [-125.23540815254651, 33.33148899848963]}}, {"type": "Feature", "properties": {"norad_id": 41601, "name": "SKYSAT-C1", "group": "resource", "lat": 54.61717706619343, "lon": -140.76145855738739, "alt_km": 463.4156608645826, "timestamp": "2025-12-18T14:52:07.687800+00:00", "meta": {"OBJECT_NAME": "SKYSAT-C1", "OBJECT_ID": "2016-040C", "EPOCH": "2025-12-18T01:47:29.157792", "MEAN_MOTION": 15.32685603, "ECCENTRICITY": 0.00017471, "INCLINATION": 96.9819, "RA_OF_ASC_NODE": 28.7879, "ARG_OF_PERICENTER": 357.802, "MEAN_ANOMALY": 2.3215, "EPHEMERIS_TYPE": 0, "CLASSIFICATION_TYPE": "U", "NORAD_CAT_ID": 41601, "ELEMENT_SET_NO": 999, "REV_AT_EPOCH": 53009, "BSTAR": 0.00024690976, "MEAN_MOTION_DOT": 7.722e-05, "MEAN_MOTION_DDOT": 0}, "tle": {"line1": "1 41601U 16040C   25352.07464303  .00007722  00000+0  24691-3 0  9999", "line2": "2 41601  96.9819  28.7879 0001747 357.8020   2.3215 15.32685603530090"}}, "geometry": {"type": "Point", "coordinates": [-140.76145855738739, 54.61717706619343]}}, {"type": "Feature", "properties": {"norad_id": 41603, "name": "LAPAN-A3", "group": "resource", "lat": -64.90614833127452, "lon": 154.43082847659335, "alt_km": 475.6132580292833, "timestamp": "2025-12-18T14:52:07.687810+00:00", "meta": {"OBJECT_NAME": "LAPAN-A3", "OBJECT_ID": "2016-040E", "EPOCH": "2025-12-18T07:31:33.023424", "MEAN_MOTION": 15.3159702, "ECCENTRICITY": 0.0009101, "INCLINATION": 97.1423, "RA_OF_ASC_NODE": 349.6672, "ARG_OF_PERICENTER": 311.4473, "MEAN_ANOMALY": 48.5987, "EPHEMERIS_TYPE": 0, "CLASSIFICATION_TYPE": "U", "NORAD_CAT_ID": 41603, "ELEMENT_SET_NO": 999, "REV_AT_EPOCH": 52711, "BSTAR": 0.00011733136, "MEAN_MOTION_DOT": 3.509e-05, "MEAN_MOTION_DDOT": 0}, "tle": {"line1": "1 41603U 16040E   25352.31357666  .00003509  00000+0  11733-3 0  9993", "line2": "2 41603  97.1423 349.6672 0009101 311.4473  48.5987 15.31597020527113"}}, "geometry": {"type": "Point", "coordinates": [154.43082847659335, -64.90614833127452]}}, {"type": "Feature", "properties": {"norad_id": 41604, "name": "BIROS", "group": "resource", "lat": -61.40910209117512, "lon": -168.86229617122328, "alt_km": 304.8693342879851, "timestamp": "2025-12-18T14:52:07.687821+00:00", "meta": {"OBJECT_NAME": "BIROS", "OBJECT_ID": "2016-040F", "EPOCH": "2025-12-18T01:47:05.930016", "MEAN_MOTION": 15.91743034, "ECCENTRICITY": 0.00037123, "INCLINATION": 97.068, "RA_OF_ASC_NODE": 23.7286, "ARG_OF_PERICENTER": 135.4768, "MEAN_ANOMALY": 224.6806, "EPHEMERIS_TYPE": 0, "CLASSIFICATION_TYPE": "U", "NORAD_CAT_ID": 41604, "ELEMENT_SET_NO": 999, "REV_AT_EPOCH": 52957, "BSTAR": 0.00054395156, "MEAN_MOTION_DOT": 0.0017616, "MEAN_MOTION_DDOT": 1.3396954e-05}, "tle": {"line1": "1 41604U 16040F   25352.07437419  .00176160  13397-4  54395-3 0  9995", "line2": "2 41604  97.0680  23.7286 0003712 135.4768 224.6806 15.91743034529575"}}, "geometry": {"type": "Point", "coordinates": [-168.86229617122328, -61.40910209117512]}}, {"type": "Feature", "properties": {"norad_id": 41727, "name": "GAOFEN-3", "group": "resource", "lat": -63.806249940496635, "lon": 15.604594893013491, "alt_km": 758.852247663478, "timestamp": "2025-12-18T14:52:07.687831+00:00", "meta": {"OBJECT_NAME": "GAOFEN-3", "OBJECT_ID": "2016-049A", "EPOCH": "2025-12-18T06:50:41.423424", "MEAN_MOTION": 14.42214682, "ECCENTRICITY": 0.0001273, "INCLINATION": 98.4035, "RA_OF_ASC_NODE": 357.7875, "ARG_OF_PERICENTER": 57.4531, "MEAN_ANOMALY": 302.6782, "EPHEMERIS_TYPE": 0, "CLASSIFICATION_TYPE": "U", "NORAD_CAT_ID": 41727, "ELEMENT_SET_NO": 999, "REV_AT_EPOCH": 49257, "BSTAR": -1.13878e-05, "MEAN_MOTION_DOT": -8.1e-07, "MEAN_MOTION_DDOT": 0}, "tle": {"line1": "1 41727U 16049A   25352.28520166 -.00000081  00000+0 -11388-4 0  9993", "line2": "2 41727  98.4035 357.7875 0001273  57.4531 302.6782 14.42214682492571"}}, "geometry": {"type": "Point", "coordinates": [15.604594893013491, -63.806249940496635]}}, {"type": "Feature", "properties": {"norad_id": 41771, "name": "SKYSAT-C4", "group": "resource", "lat": -81.29380303125542, "lon": 144.85973912028015, "alt_km": 447.34196731777865, "timestamp": "2025-12-18T14:52:07.687841+00:00", "meta": {"OBJECT_NAME": "SKYSAT-C4", "OBJECT_ID": "2016-058B", "EPOCH": "2025-12-18T01:16:05.728512", "MEAN_MOTION": 15.42399343, "ECCENTRICITY": 0.00019805, "INCLINATION": 96.9368, "RA_OF_ASC_NODE": 16.9828, "ARG_OF_PERICENTER": 130.8433, "MEAN_ANOMALY": 229.2988, "EPHEMERIS_TYPE": 0, "CLASSIFICATION_TYPE": "U", "NORAD_CAT_ID": 41771, "ELEMENT_SET_NO": 999, "REV_AT_EPOCH": 51749, "BSTAR": 0.00027833369, "MEAN_MOTION_DOT": 0.00011948, "MEAN_MOTION_DDOT": 0}, "tle": {"line1": "1 41771U 16058B   25352.05284408  .00011948  00000+0  27833-3 0  9996", "line2": "2 41771  96.9368  16.9828 0001980 130.8433 229.2988 15.42399343517496"}}, "geometry": {"type": "Point", "coordinates": [144.85973912028015, -81.29380303125542]}}, {"type": "Feature", "properties": {"norad_id": 41772, "name": "SKYSAT-C5", "group": "resource", "lat": 5.978481627582574, "lon": 35.381105504374034, "alt_km": 466.7144834000683, "timestamp": "2025-12-18T14:52:07.687851+00:00", "meta": {"OBJECT_NAME": "SKYSAT-C5", "OBJECT_ID": "2016-058C", "EPOCH": "2025-12-18T02:19:04.577664", "MEAN_MOTION": 15.33970386, "ECCENTRICITY": 0.00037557, "INCLINATION": 97.0755, "RA_OF_ASC_NODE": 35.6253, "ARG_OF_PERICENTER": 267.8506, "MEAN_ANOMALY": 92.2307, "EPHEMERIS_TYPE": 0, "CLASSIFICATION_TYPE": "U", "NORAD_CAT_ID": 41772, "ELEMENT_SET_NO": 999, "REV_AT_EPOCH": 51598, "BSTAR": 0.00023286451, "MEAN_MOTION_DOT": 7.58e-05, "MEAN_MOTION_DDOT": 0}, "tle": {"line1": "1 41772U 16058C   25352.09658076  .00007580  00000+0  23286-3 0  9992", "line2": "2 41772  97.0755  35.6253 0003755 267.8506  92.2307 15.33970386515980"}}, "geometry": {"type": "Point", "coordinates": [35.381105504374034, 5.978481627582574]}}, {"type": "Feature", "properties": {"norad_id": 41773, "name": "SKYSAT-C2", "group": "resource", "lat": 80.68953559480948, "lon": -31.979578710903105, "alt_km": 445.36837592731536, "timestamp": "2025-12-18T14:52:07.687861+00:00", "meta": {"OBJECT_NAME": "SKYSAT-C2", "OBJECT_ID": "2016-058D", "EPOCH": "2025-12-18T02:00:31.199616", "MEAN_MOTION": 15.37390226, "ECCENTRICITY": 0.00036555, "INCLINATION": 97.0354, "RA_OF_ASC_NODE": 16.3844, "ARG_OF_PERICENTER": 20.3786, "MEAN_ANOMALY": 339.7604, "EPHEMERIS_TYPE": 0, "CLASSIFICATION_TYPE": "U", "NORAD_CAT_ID": 41773, "ELEMENT_SET_NO": 999, "REV_AT_EPOCH": 51718, "BSTAR": 0.00027445506, "MEAN_MOTION_DOT": 9.986e-05, "MEAN_MOTION_DDOT": 0}, "tle": {"line1": "1 41773U 16058D   25352.08369444  .00009986  00000+0  27446-3 0  9994", "line2": "2 41773  97.0354  16.3844 0003655  20.3786 339.7604 15.37390226517185"}}, "geometry": {"type": "Point", "coordinates": [-31.979578710903105, 80.68953559480948]}}, {"type": "Feature", "properties": {"norad_id": 41774, "name": "SKYSAT-C3", "group": "resource", "lat": 62.93693148684887, "lon": 12.321722299534896, "alt_km": 425.5261487344569, "timestamp": "2025-12-18T14:52:07.687871+00:00", "meta": {"OBJECT_NAME": "SKYSAT-C3", "OBJECT_ID": "2016-058E", "EPOCH": "2025-12-18T02:09:18.146304", "MEAN_MOTION": 15.445847, "ECCENTRICITY": 0.00018411, "INCLINATION": 96.9292, "RA_OF_ASC_NODE": 25.5873, "ARG_OF_PERICENTER": 107.4284, "MEAN_ANOMALY": 252.7167, "EPHEMERIS_TYPE": 0, "CLASSIFICATION_TYPE": "U", "NORAD_CAT_ID": 41774, "ELEMENT_SET_NO": 999, "REV_AT_EPOCH": 51808, "BSTAR": 0.00034245756, "MEAN_MOTION_DOT": 0.0001585, "MEAN_MOTION_DDOT": 0}, "tle": {"line1": "1 41774U 16058E   25352.08979336  .00015850  00000+0  34246-3 0  9995", "line2": "2 41774  96.9292  25.5873 0001841 107.4284 252.7167 15.44584700518082"}}, "geometry": {"type": "Point", "coordinates": [12.321722299534896, 62.93693148684887]}}]}